[{"OBJECT_NAME":"ONEWEB-0206","OBJECT_ID":"2021-031T","EPOCH":"2025-12-10T04:28:30.171648","MEAN_MOTION":13.14504169,"ECCENTRICITY":0.00020477,"INCLINATION":87.9,"RA_OF_ASC_NODE":327.3388,"ARG_OF_PERICENTER":85.956,"MEAN_ANOMALY":274.1804,"EPHEMERIS_TYPE":0,"CLASSIFICATION_TYPE":"U","NORAD_CAT_ID":48227,"ELEMENT_SET_NO":999,"REV_AT_EPOCH":22339,"BSTAR":0.00059648877,"MEAN_MOTION_DOT":2.34e-6,"MEAN_MOTION_DDOT":0},{"OBJECT_NAME":"ONEWEB-0182","OBJECT_ID":"2021-031U","EPOCH":"2025-12-09T10:05:33.819648","MEAN_MOTION":13.14503288,"ECCENTRICITY":0.00016683,"INCLINATION":87.8979,"RA_OF_ASC_NODE":327.5207,"ARG_OF_PERICENTER":93.7221,"MEAN_ANOMALY":266.4099,"EPHEMERIS_TYPE":0,"CLASSIFICATION_TYPE":"U","NORAD_CAT_ID":48228,"ELEMENT_SET_NO":999,"REV_AT_EPOCH":22350,"BSTAR":0.00055680864,"MEAN_MOTION_DOT":2.19e-6,"MEAN_MOTION_DDOT":0},{"OBJECT_NAME":"ONEWEB-0186","OBJECT_ID":"2021-031V","EPOCH":"2025-12-10T04:37:38.606016","MEAN_MOTION":13.14503135,"ECCENTRICITY":0.00016627,"INCLINATION":87.8996,"RA_OF_ASC_NODE":327.3431,"ARG_OF_PERICENTER":84.995,"MEAN_ANOMALY":275.1369,"EPHEMERIS_TYPE":0,"CLASSIFICATION_TYPE":"U","NORAD_CAT_ID":48229,"ELEMENT_SET_NO":999,"REV_AT_EPOCH":22355,"BSTAR":0.00030116038,"MEAN_MOTION_DOT":1.24e-6,"MEAN_MOTION_DDOT":0},{"OBJECT_NAME":"ONEWEB-0181","OBJECT_ID":"2021-031W","EPOCH":"2025-12-09T22:36:50.423328","MEAN_MOTION":13.14502947,"ECCENTRICITY":0.00016388,"INCLINATION":87.8977,"RA_OF_ASC_NODE":327.4479,"ARG_OF_PERICENTER":80.5997,"MEAN_ANOMALY":279.5318,"EPHEMERIS_TYPE":0,"CLASSIFICATION_TYPE":"U","NORAD_CAT_ID":48230,"ELEMENT_SET_NO":999,"REV_AT_EPOCH":22337,"BSTAR":0.00053738033,"MEAN_MOTION_DOT":2.12e-6,"MEAN_MOTION_DDOT":0},{"OBJECT_NAME":"ONEWEB-0188","OBJECT_ID":"2021-031X","EPOCH":"2025-12-10T05:00:27.842976","MEAN_MOTION":13.14503991,"ECCENTRICITY":0.00017121,"INCLINATION":87.8981,"RA_OF_ASC_NODE":327.3912,"ARG_OF_PERICENTER":88.0827,"MEAN_ANOMALY":272.0499,"EPHEMERIS_TYPE":0,"CLASSIFICATION_TYPE":"U","NORAD_CAT_ID":48231,"ELEMENT_SET_NO":999,"REV_AT_EPOCH":22331,"BSTAR":-0.0005346739,"MEAN_MOTION_DOT":-1.85e-6,"MEAN_MOTION_DDOT":0},{"OBJECT_NAME":"ONEWEB-0220","OBJECT_ID":"2021-031Y","EPOCH":"2025-12-09T22:39:07.731072","MEAN_MOTION":13.14503683,"ECCENTRICITY":0.00014732,"INCLINATION":87.8994,"RA_OF_ASC_NODE":327.392,"ARG_OF_PERICENTER":87.1382,"MEAN_ANOMALY":272.9916,"EPHEMERIS_TYPE":0,"CLASSIFICATION_TYPE":"U","NORAD_CAT_ID":48232,"ELEMENT_SET_NO":999,"REV_AT_EPOCH":22354,"BSTAR":0.00043915169,"MEAN_MOTION_DOT":1.76e-6,"MEAN_MOTION_DDOT":0},{"OBJECT_NAME":"ONEWEB-0165","OBJECT_ID":"2021-031Z","EPOCH":"2025-12-10T04:49:04.295424","MEAN_MOTION":13.14503324,"ECCENTRICITY":0.00016994,"INCLINATION":87.8978,"RA_OF_ASC_NODE":327.3675,"ARG_OF_PERICENTER":74.1801,"MEAN_ANOMALY":285.9516,"EPHEMERIS_TYPE":0,"CLASSIFICATION_TYPE":"U","NORAD_CAT_ID":48233,"ELEMENT_SET_NO":999,"REV_AT_EPOCH":22353,"BSTAR":-0.00020392348,"MEAN_MOTION_DOT":-6.3e-7,"MEAN_MOTION_DDOT":0},{"OBJECT_NAME":"ONEWEB-0199","OBJECT_ID":"2021-031AA","EPOCH":"2025-12-10T04:26:12.821568","MEAN_MOTION":13.14503935,"ECCENTRICITY":0.00019008,"INCLINATION":87.8993,"RA_OF_ASC_NODE":327.3454,"ARG_OF_PERICENTER":88.1856,"MEAN_ANOMALY":271.9491,"EPHEMERIS_TYPE":0,"CLASSIFICATION_TYPE":"U","NORAD_CAT_ID":48234,"ELEMENT_SET_NO":999,"REV_AT_EPOCH":22343,"BSTAR":0.00041921292,"MEAN_MOTION_DOT":1.68e-6,"MEAN_MOTION_DDOT":0},{"OBJECT_NAME":"ONEWEB-0203","OBJECT_ID":"2021-031AB","EPOCH":"2025-12-10T00:33:18.135648","MEAN_MOTION":13.14503054,"ECCENTRICITY":0.00019152,"INCLINATION":87.8986,"RA_OF_ASC_NODE":327.3783,"ARG_OF_PERICENTER":79.5355,"MEAN_ANOMALY":280.5991,"EPHEMERIS_TYPE":0,"CLASSIFICATION_TYPE":"U","NORAD_CAT_ID":48235,"ELEMENT_SET_NO":999,"REV_AT_EPOCH":22342,"BSTAR":0.00055680029,"MEAN_MOTION_DOT":2.19e-6,"MEAN_MOTION_DDOT":0},{"OBJECT_NAME":"ONEWEB-0197","OBJECT_ID":"2021-031AC","EPOCH":"2025-12-09T22:06:56.875104","MEAN_MOTION":13.14504302,"ECCENTRICITY":0.00016474,"INCLINATION":87.8988,"RA_OF_ASC_NODE":327.397,"ARG_OF_PERICENTER":96.7918,"MEAN_ANOMALY":263.3399,"EPHEMERIS_TYPE":0,"CLASSIFICATION_TYPE":"U","NORAD_CAT_ID":48236,"ELEMENT_SET_NO":999,"REV_AT_EPOCH":22332,"BSTAR":-0.00035661317,"MEAN_MOTION_DOT":-1.19e-6,"MEAN_MOTION_DDOT":0},{"OBJECT_NAME":"ONEWEB-0194","OBJECT_ID":"2021-031AD","EPOCH":"2025-12-10T04:55:54.611616","MEAN_MOTION":13.14502773,"ECCENTRICITY":0.00020248,"INCLINATION":87.8989,"RA_OF_ASC_NODE":327.3576,"ARG_OF_PERICENTER":86.1098,"MEAN_ANOMALY":274.0263,"EPHEMERIS_TYPE":0,"CLASSIFICATION_TYPE":"U","NORAD_CAT_ID":48237,"ELEMENT_SET_NO":999,"REV_AT_EPOCH":22353,"BSTAR":-0.00031437609,"MEAN_MOTION_DOT":-1.04e-6,"MEAN_MOTION_DDOT":0},{"OBJECT_NAME":"ONEWEB-0193","OBJECT_ID":"2021-031AE","EPOCH":"2025-12-09T16:31:27.800544","MEAN_MOTION":13.14504419,"ECCENTRICITY":0.00022298,"INCLINATION":87.8987,"RA_OF_ASC_NODE":327.4554,"ARG_OF_PERICENTER":88.47,"MEAN_ANOMALY":271.6685,"EPHEMERIS_TYPE":0,"CLASSIFICATION_TYPE":"U","NORAD_CAT_ID":48238,"ELEMENT_SET_NO":999,"REV_AT_EPOCH":22341,"BSTAR":-0.00044009145,"MEAN_MOTION_DOT":-1.5e-6,"MEAN_MOTION_DDOT":0},{"OBJECT_NAME":"ONEWEB-0191","OBJECT_ID":"2021-031AF","EPOCH":"2025-12-09T16:47:27.643200","MEAN_MOTION":13.14501345,"ECCENTRICITY":0.00017851,"INCLINATION":87.8993,"RA_OF_ASC_NODE":327.4427,"ARG_OF_PERICENTER":88.9756,"MEAN_ANOMALY":271.1578,"EPHEMERIS_TYPE":0,"CLASSIFICATION_TYPE":"U","NORAD_CAT_ID":48239,"ELEMENT_SET_NO":999,"REV_AT_EPOCH":22327,"BSTAR":0.0002247987,"MEAN_MOTION_DOT":9.6e-7,"MEAN_MOTION_DDOT":0},{"OBJECT_NAME":"ONEWEB-0195","OBJECT_ID":"2021-031AG","EPOCH":"2025-12-10T05:01:36.562944","MEAN_MOTION":13.14501772,"ECCENTRICITY":0.00016225,"INCLINATION":87.9001,"RA_OF_ASC_NODE":327.3377,"ARG_OF_PERICENTER":73.8004,"MEAN_ANOMALY":286.3304,"EPHEMERIS_TYPE":0,"CLASSIFICATION_TYPE":"U","NORAD_CAT_ID":48240,"ELEMENT_SET_NO":999,"REV_AT_EPOCH":22332,"BSTAR":-0.00055727457,"MEAN_MOTION_DOT":-1.94e-6,"MEAN_MOTION_DDOT":0},{"OBJECT_NAME":"ONEWEB-0201","OBJECT_ID":"2021-031AH","EPOCH":"2025-12-10T04:44:42.197568","MEAN_MOTION":13.14501971,"ECCENTRICITY":0.00014755,"INCLINATION":87.8982,"RA_OF_ASC_NODE":327.3796,"ARG_OF_PERICENTER":89.0303,"MEAN_ANOMALY":271.0996,"EPHEMERIS_TYPE":0,"CLASSIFICATION_TYPE":"U","NORAD_CAT_ID":48241,"ELEMENT_SET_NO":999,"REV_AT_EPOCH":22355,"BSTAR":-0.00011320853,"MEAN_MOTION_DOT":-2.9e-7,"MEAN_MOTION_DDOT":0},{"OBJECT_NAME":"ONEWEB-0207","OBJECT_ID":"2021-031AJ","EPOCH":"2025-12-10T00:36:44.019936","MEAN_MOTION":13.14502083,"ECCENTRICITY":0.00015821,"INCLINATION":87.8999,"RA_OF_ASC_NODE":327.3758,"ARG_OF_PERICENTER":91.1252,"MEAN_ANOMALY":269.0059,"EPHEMERIS_TYPE":0,"CLASSIFICATION_TYPE":"U","NORAD_CAT_ID":48242,"ELEMENT_SET_NO":999,"REV_AT_EPOCH":22344,"BSTAR":0.00047793062,"MEAN_MOTION_DOT":1.9e-6,"MEAN_MOTION_DDOT":0},{"OBJECT_NAME":"ONEWEB-0208","OBJECT_ID":"2021-031AK","EPOCH":"2025-12-09T16:52:01.442208","MEAN_MOTION":13.14504294,"ECCENTRICITY":0.00016666,"INCLINATION":87.8987,"RA_OF_ASC_NODE":327.455,"ARG_OF_PERICENTER":80.1966,"MEAN_ANOMALY":279.9352,"EPHEMERIS_TYPE":0,"CLASSIFICATION_TYPE":"U","NORAD_CAT_ID":48243,"ELEMENT_SET_NO":999,"REV_AT_EPOCH":22341,"BSTAR":0.00023511985,"MEAN_MOTION_DOT":1.0e-6,"MEAN_MOTION_DDOT":0},{"OBJECT_NAME":"ONEWEB-0200","OBJECT_ID":"2021-031AL","EPOCH":"2025-12-10T04:46:45.610464","MEAN_MOTION":13.14500674,"ECCENTRICITY":0.0001665,"INCLINATION":87.8989,"RA_OF_ASC_NODE":327.3458,"ARG_OF_PERICENTER":83.8586,"MEAN_ANOMALY":276.2733,"EPHEMERIS_TYPE":0,"CLASSIFICATION_TYPE":"U","NORAD_CAT_ID":48244,"ELEMENT_SET_NO":999,"REV_AT_EPOCH":22340,"BSTAR":-9.353974e-5,"MEAN_MOTION_DOT":-2.2e-7,"MEAN_MOTION_DDOT":0},{"OBJECT_NAME":"ONEWEB-0217","OBJECT_ID":"2021-031AM","EPOCH":"2025-12-10T05:09:36.435456","MEAN_MOTION":13.1450305,"ECCENTRICITY":0.00016737,"INCLINATION":87.8999,"RA_OF_ASC_NODE":327.3371,"ARG_OF_PERICENTER":76.2249,"MEAN_ANOMALY":283.9067,"EPHEMERIS_TYPE":0,"CLASSIFICATION_TYPE":"U","NORAD_CAT_ID":48245,"ELEMENT_SET_NO":999,"REV_AT_EPOCH":22335,"BSTAR":-0.00057425935,"MEAN_MOTION_DOT":-2.0e-6,"MEAN_MOTION_DDOT":0},{"OBJECT_NAME":"ONEWEB-0211","OBJECT_ID":"2021-045A","EPOCH":"2025-12-10T06:39:04.233312","MEAN_MOTION":13.161371,"ECCENTRICITY":0.0001971,"INCLINATION":87.8999,"RA_OF_ASC_NODE":296.8134,"ARG_OF_PERICENTER":66.4736,"MEAN_ANOMALY":293.6602,"EPHEMERIS_TYPE":0,"CLASSIFICATION_TYPE":"U","NORAD_CAT_ID":48767,"ELEMENT_SET_NO":999,"REV_AT_EPOCH":21959,"BSTAR":3.45362e-7,"MEAN_MOTION_DOT":1.3e-7,"MEAN_MOTION_DDOT":0},{"OBJECT_NAME":"ONEWEB-0223","OBJECT_ID":"2021-045B","EPOCH":"2025-12-10T06:24:17.663040","MEAN_MOTION":13.15548196,"ECCENTRICITY":0.00021864,"INCLINATION":87.8997,"RA_OF_ASC_NODE":296.8793,"ARG_OF_PERICENTER":70.9179,"MEAN_ANOMALY":289.2188,"EPHEMERIS_TYPE":0,"CLASSIFICATION_TYPE":"U","NORAD_CAT_ID":48768,"ELEMENT_SET_NO":999,"REV_AT_EPOCH":21956,"BSTAR":0.00013710831,"MEAN_MOTION_DOT":6.4e-7,"MEAN_MOTION_DDOT":0},{"OBJECT_NAME":"ONEWEB-0230","OBJECT_ID":"2021-045C","EPOCH":"2025-12-10T07:32:44.371680","MEAN_MOTION":13.15549298,"ECCENTRICITY":0.00018432,"INCLINATION":87.8987,"RA_OF_ASC_NODE":296.8999,"ARG_OF_PERICENTER":84.1629,"MEAN_ANOMALY":275.9712,"EPHEMERIS_TYPE":0,"CLASSIFICATION_TYPE":"U","NORAD_CAT_ID":48769,"ELEMENT_SET_NO":999,"REV_AT_EPOCH":21983,"BSTAR":0.00045902365,"MEAN_MOTION_DOT":1.86e-6,"MEAN_MOTION_DDOT":0},{"OBJECT_NAME":"ONEWEB-0237","OBJECT_ID":"2021-045D","EPOCH":"2025-12-10T07:16:46.096320","MEAN_MOTION":13.15548982,"ECCENTRICITY":0.00020784,"INCLINATION":87.8989,"RA_OF_ASC_NODE":296.902,"ARG_OF_PERICENTER":76.6015,"MEAN_ANOMALY":283.5347,"EPHEMERIS_TYPE":0,"CLASSIFICATION_TYPE":"U","NORAD_CAT_ID":48770,"ELEMENT_SET_NO":999,"REV_AT_EPOCH":21955,"BSTAR":0.00012302594,"MEAN_MOTION_DOT":5.9e-7,"MEAN_MOTION_DDOT":0}]
